ORBCOMM FM20            
1 25416U 98046D   25357.71953150  .00000908  00000+0  34612-3 0  9993
2 25416  44.9952   3.3948 0002216 256.9568 103.1033 14.37687240431531
ORBCOMM FM16            
1 25417U 98046E   25357.68938703  .00001177  00000+0  41889-3 0  9990
2 25417  44.9950 352.5098 0004188 206.3552 153.7084 14.39559804431552
ORBCOMM FM15            
1 25418U 98046F   25357.71349058  .00001087  00000+0  39331-3 0  9993
2 25418  44.9979 358.1192 0004042 208.3629 151.7000 14.39188622431548
ORBCOMM FM14            
1 25419U 98046G   25357.05590985  .00001096  00000+0  39282-3 0  9993
2 25419  44.9968 358.9021 0002843 214.9945 145.0717 14.39606704431421
ORBCOMM FM13            
1 25420U 98046H   25357.75820426  .00000905  00000+0  34162-3 0  9998
2 25420  44.9985   5.4686 0004154 178.7552 181.3307 14.38221256430523
ORBCOMM FM21            
1 25475U 98053A   25357.53404188  .00000870  00000+0  33276-3 0  9991
2 25475  45.0080  92.5184 0001624 168.9453 191.1431 14.37816520424490
ORBCOMM FM22            
1 25476U 98053B   25357.63433905  .00001034  00000+0  37774-3 0  9992
2 25476  45.0075  85.2800 0002510 135.8422 224.2627 14.38991563424557
ORBCOMM FM23            
1 25477U 98053C   25357.71580591  .00001000  00000+0  37395-3 0  9998
2 25477  45.0079  93.4770 0001983 139.8014 220.2981 14.38056359424670
